{
  "links" : {
    "next" : "https://api.nasa.gov/neo/rest/v1/feed?start_date=2006-11-09&end_date=2006-11-09&detailed=true&api_key=t0TVs3DtDT2H8Oy2Zy8m2eVrNsAVKAexjcZXUckd",
    "prev" : "https://api.nasa.gov/neo/rest/v1/feed?start_date=2006-11-07&end_date=2006-11-07&detailed=true&api_key=t0TVs3DtDT2H8Oy2Zy8m2eVrNsAVKAexjcZXUckd",
    "self" : "https://api.nasa.gov/neo/rest/v1/feed?start_date=2006-11-08&end_date=2006-11-08&detailed=true&api_key=t0TVs3DtDT2H8Oy2Zy8m2eVrNsAVKAexjcZXUckd"
  },
  "element_count" : 5,
  "near_earth_objects" : {
    "2006-11-08" : [ {
      "links" : {
        "self" : "https://api.nasa.gov/neo/rest/v1/neo/2005693?api_key=t0TVs3DtDT2H8Oy2Zy8m2eVrNsAVKAexjcZXUckd"
      },
      "neo_reference_id" : "2005693",
      "name" : "5693 (1993 EA)",
      "nasa_jpl_url" : "http://ssd.jpl.nasa.gov/sbdb.cgi?sstr=2005693",
      "absolute_magnitude_h" : 16.7,
      "estimated_diameter" : {
        "kilometers" : {
          "estimated_diameter_min" : 1.214940408,
          "estimated_diameter_max" : 2.7166893409
        },
        "meters" : {
          "estimated_diameter_min" : 1214.9404079963,
          "estimated_diameter_max" : 2716.6893408911
        },
        "miles" : {
          "estimated_diameter_min" : 0.7549287363,
          "estimated_diameter_max" : 1.6880719724
        },
        "feet" : {
          "estimated_diameter_min" : 3986.0250881707,
          "estimated_diameter_max" : 8913.0230571693
        }
      },
      "is_potentially_hazardous_asteroid" : true,
      "close_approach_data" : [ {
        "close_approach_date" : "2006-11-08",
        "epoch_date_close_approach" : 1162972800000,
        "relative_velocity" : {
          "kilometers_per_second" : "15.3584902361",
          "kilometers_per_hour" : "55290.5648498952",
          "miles_per_hour" : "34355.4068090918"
        },
        "miss_distance" : {
          "astronomical" : "0.3884573931",
          "lunar" : "151.1099243164",
          "kilometers" : "58112400",
          "miles" : "36109372"
        },
        "orbiting_body" : "Earth"
      } ],
      "orbital_data" : {
        "orbit_id" : "259",
        "orbit_determination_date" : "2017-05-25 06:20:37",
        "orbit_uncertainty" : "0",
        "minimum_orbit_intersection" : ".00545187",
        "jupiter_tisserand_invariant" : "4.892",
        "epoch_osculation" : "2458000.5",
        "eccentricity" : ".5852321960481843",
        "semi_major_axis" : "1.270982941657798",
        "inclination" : "5.054311365902835",
        "ascending_node_longitude" : "97.0479963981545",
        "orbital_period" : "523.3690173768238",
        "perihelion_distance" : ".5271628035716237",
        "perihelion_argument" : "258.8869786110657",
        "aphelion_distance" : "2.014803079743973",
        "perihelion_time" : "2458212.146679610770",
        "mean_anomaly" : "214.4185801410962",
        "mean_motion" : ".6878511873025173",
        "equinox" : "J2000"
      }
    }, {
      "links" : {
        "self" : "https://api.nasa.gov/neo/rest/v1/neo/2137064?api_key=t0TVs3DtDT2H8Oy2Zy8m2eVrNsAVKAexjcZXUckd"
      },
      "neo_reference_id" : "2137064",
      "name" : "137064 (1998 WP5)",
      "nasa_jpl_url" : "http://ssd.jpl.nasa.gov/sbdb.cgi?sstr=2137064",
      "absolute_magnitude_h" : 18.9,
      "estimated_diameter" : {
        "kilometers" : {
          "estimated_diameter_min" : 0.4411182,
          "estimated_diameter_max" : 0.9863702813
        },
        "meters" : {
          "estimated_diameter_min" : 441.1181999969,
          "estimated_diameter_max" : 986.3702813054
        },
        "miles" : {
          "estimated_diameter_min" : 0.2740980571,
          "estimated_diameter_max" : 0.6129018881
        },
        "feet" : {
          "estimated_diameter_min" : 1447.2382352778,
          "estimated_diameter_max" : 3236.1230737181
        }
      },
      "is_potentially_hazardous_asteroid" : false,
      "close_approach_data" : [ {
        "close_approach_date" : "2006-11-08",
        "epoch_date_close_approach" : 1162972800000,
        "relative_velocity" : {
          "kilometers_per_second" : "10.40999977",
          "kilometers_per_hour" : "37475.9991719579",
          "miles_per_hour" : "23286.1284854868"
        },
        "miss_distance" : {
          "astronomical" : "0.3598405933",
          "lunar" : "139.9779968262",
          "kilometers" : "53831388",
          "miles" : "33449274"
        },
        "orbiting_body" : "Earth"
      } ],
      "orbital_data" : {
        "orbit_id" : "54",
        "orbit_determination_date" : "2017-04-06 09:27:57",
        "orbit_uncertainty" : "0",
        "minimum_orbit_intersection" : ".246858",
        "jupiter_tisserand_invariant" : "4.737",
        "epoch_osculation" : "2458000.5",
        "eccentricity" : ".195148860886425",
        "semi_major_axis" : "1.374143602162789",
        "inclination" : "19.50334559213595",
        "ascending_node_longitude" : "36.14355837191858",
        "orbital_period" : "588.3646980839436",
        "perihelion_distance" : "1.105981043506352",
        "perihelion_argument" : "97.55835799164102",
        "aphelion_distance" : "1.642306160819226",
        "perihelion_time" : "2458281.681579693746",
        "mean_anomaly" : "187.9547209079727",
        "mean_motion" : ".6118653977241814",
        "equinox" : "J2000"
      }
    }, {
      "links" : {
        "self" : "https://api.nasa.gov/neo/rest/v1/neo/3409991?api_key=t0TVs3DtDT2H8Oy2Zy8m2eVrNsAVKAexjcZXUckd"
      },
      "neo_reference_id" : "3409991",
      "name" : "(2008 JQ)",
      "nasa_jpl_url" : "http://ssd.jpl.nasa.gov/sbdb.cgi?sstr=3409991",
      "absolute_magnitude_h" : 25.6,
      "estimated_diameter" : {
        "kilometers" : {
          "estimated_diameter_min" : 0.0201629919,
          "estimated_diameter_max" : 0.0450858206
        },
        "meters" : {
          "estimated_diameter_min" : 20.1629919443,
          "estimated_diameter_max" : 45.0858206172
        },
        "miles" : {
          "estimated_diameter_min" : 0.0125286985,
          "estimated_diameter_max" : 0.0280150214
        },
        "feet" : {
          "estimated_diameter_min" : 66.1515504905,
          "estimated_diameter_max" : 147.9193637137
        }
      },
      "is_potentially_hazardous_asteroid" : false,
      "close_approach_data" : [ {
        "close_approach_date" : "2006-11-08",
        "epoch_date_close_approach" : 1162972800000,
        "relative_velocity" : {
          "kilometers_per_second" : "7.2836113369",
          "kilometers_per_hour" : "26221.0008127856",
          "miles_per_hour" : "16292.7101994778"
        },
        "miss_distance" : {
          "astronomical" : "0.1334157899",
          "lunar" : "51.8987426758",
          "kilometers" : "19958718",
          "miles" : "12401772"
        },
        "orbiting_body" : "Earth"
      } ],
      "orbital_data" : {
        "orbit_id" : "12",
        "orbit_determination_date" : "2017-04-06 09:03:32",
        "orbit_uncertainty" : "6",
        "minimum_orbit_intersection" : ".00551963",
        "jupiter_tisserand_invariant" : "5.973",
        "epoch_osculation" : "2458000.5",
        "eccentricity" : ".1078109733598011",
        "semi_major_axis" : "1.016434696093921",
        "inclination" : "13.7060098938375",
        "ascending_node_longitude" : "220.6893525399665",
        "orbital_period" : "374.2981226435485",
        "perihelion_distance" : ".9068518821513614",
        "perihelion_argument" : "259.6686405089221",
        "aphelion_distance" : "1.12601751003648",
        "perihelion_time" : "2457863.762966162424",
        "mean_anomaly" : "131.5137031248371",
        "mean_motion" : ".961800175372066",
        "equinox" : "J2000"
      }
    } ]
  }
}